NORAD_CAT_ID,OBJECT_NAME,OBJECT_TYPE,EPOCH,MEAN_MOTION,ECCENTRICITY,INCLINATION,RA_OF_ASC_NODE,ARG_OF_PERICENTER,MEAN_ANOMALY,BSTAR,MEAN_MOTION_DOT,MEAN_MOTION_DDOT,TLE_LINE0,TLE_LINE1,TLE_LINE2,SEMIMAJOR_AXIS,PERIOD,APOGEE,PERIGEE,DECAYED
53826.0,STARLINK-4756,PAYLOAD,2022-10-04 14:00:01,15.73133371,0.0001247,53.2154,181.8868,128.1077,54.4912,1.4581e-05,1.422e-05,0.0,0 STARLINK-4756,1 53826U 22114J   22277.58334491  .00001422  00000-0  14581-4 0  9993,2 53826  53.2154 181.8868 0001247 128.1077  54.4912 15.73133371  1309,6728.085,91.537,350.789,349.111,0.0
53826.0,STARLINK-4756,PAYLOAD,2022-10-04 16:00:00,15.73097529,0.0001391,53.2154,181.474,127.0091,167.8138,0.00058074,0.00081317,0.0,0 STARLINK-4756,1 53826U 22114J   22277.66667824  .00081317  00000-0  58074-3 0  9996,2 53826  53.2154 181.4740 0001391 127.0091 167.8138 15.73097529  3033,6728.187,91.539,350.98800000000006,349.116,0.0
53826.0,STARLINK-4756,PAYLOAD,2022-10-04 22:00:00,15.73151918,0.000135,53.2155,180.2384,122.4224,149.0264,0.00022551,0.00031081,0.0,0 STARLINK-4756,1 53826U 22114J   22277.91667824  .00031081  00000-0  22551-3 0  9998,2 53826  53.2155 180.2384 0001350 122.4224 149.0264 15.73151918  1300,6728.031999999997,91.536,350.806,348.98900000000015,0.0
53826.0,STARLINK-4756,PAYLOAD,2022-10-05 14:00:01,15.73143545,0.0001406999999999,53.2153,176.9384,128.4899,320.8508,7.8817e-05,0.00010429,0.0,0 STARLINK-4756,1 53826U 22114J   22278.58335648  .00010429  00000-0  78817-4 0  9998,2 53826  53.2153 176.9384 0001407 128.4899 320.8508 15.73143545  1304,6728.056,91.536,350.86800000000005,348.974,0.0
53826.0,STARLINK-4756,PAYLOAD,2022-10-05 22:00:00,15.731547199999998,0.0001465999999999,53.2155,175.2904,123.6959,54.4426,0.00030642,0.00042519,0.0,0 STARLINK-4756,1 53826U 22114J   22278.91667824  .00042519  00000-0  30642-3 0  9997,2 53826  53.2155 175.2904 0001466 123.6959  54.4426 15.73154720  1301,6728.024,91.536,350.876,348.903,0.0
53826.0,STARLINK-4756,PAYLOAD,2022-10-06 06:00:00,15.73183702,0.0001217999999999,53.2153,173.6416,124.7599,142.27,0.00030128,0.00041844,0.0,0 STARLINK-4756,1 53826U 22114J   22279.25001157  .00041844  00000-0  30128-3 0  9995,2 53826  53.2153 173.6416 0001218 124.7599 142.2700 15.73183702  3288,6727.941999999999,91.534,350.626,348.987,0.0
53826.0,STARLINK-4756,PAYLOAD,2022-10-06 14:00:01,15.73200913,0.0001395,53.2157,171.9901,134.4462,221.5155,0.00030316,0.00042142,0.0,0 STARLINK-4756,1 53826U 22114J   22279.58334491  .00042142  00000-0  30316-3 0  9992,2 53826  53.2157 171.9901 0001395 134.4462 221.5155 15.73200913  1305,6727.893,91.533,350.696,348.819,0.0
53826.0,STARLINK-4756,PAYLOAD,2022-10-06 22:42:55,15.7325234,0.0001363,53.216,170.1955,124.9688,128.7611,0.00021796,0.00030147,0.0,0 STARLINK-4756,1 53826U 22114J   22279.94646991  .00030147  00000-0  21796-3 0  9997,2 53826  53.2160 170.1955 0001363 124.9688 128.7611 15.73252340  1304,6727.746,91.53,350.528,348.694,0.0
53826.0,STARLINK-4756,PAYLOAD,2022-10-07 06:00:00,15.73465288,0.0001240999999999,53.2165,168.6951,119.6422,54.2277,-0.0044157,-0.00585663,0.0,0 STARLINK-4756,1 53826U 22114J   22280.25001157 -.00585663  00000-0 -44157-2 0  9997,2 53826  53.2165 168.6951 0001241 119.6422  54.2277 15.73465288  3444,6727.139,91.518,349.839,348.1690000000001,0.0
53826.0,STARLINK-4756,PAYLOAD,2022-10-07 14:00:01,15.72915798,0.0001341,53.2172,167.0437,123.0572,139.8188,0.0031761,0.00465055,0.0,0 STARLINK-4756,1 53826U 22114J   22280.58334491  .00465055  00000-0  31761-2 0  9990,2 53826  53.2172 167.0437 0001341 123.0572 139.8188 15.72915798  3491,6728.706,91.55,351.473,349.668,0.0
53826.0,STARLINK-4756,PAYLOAD,2022-10-07 22:00:00,15.73249404,0.0001462,53.2156,165.394,126.8627,224.842,-0.00024556,-0.00035013,0.0,0 STARLINK-4756,1 53826U 22114J   22280.91667824 -.00035013  00000-0 -24556-3 0  9990,2 53826  53.2156 165.3940 0001462 126.8627 224.8420 15.73249404  3544,6727.754,91.53,350.603,348.636,0.0
53826.0,STARLINK-4756,PAYLOAD,2022-10-08 14:00:01,15.7311736,0.0001375999999999,53.2156,162.0932,139.6376,29.9663,0.00054978,0.00076974,0.0,0 STARLINK-4756,1 53826U 22114J   22281.58334491  .00076974  00000-0  54978-3 0  9995,2 53826  53.2156 162.0932 0001376 139.6376  29.9663 15.73117360  3656,6728.130999999999,91.538,350.922,349.07,0.0
53826.0,STARLINK-4756,PAYLOAD,2022-10-08 22:00:00,15.73200216,0.0001554999999999,53.2174,160.4475,143.0068,115.4556,5.2927e-05,6.814e-05,0.0,0 STARLINK-4756,1 53826U 22114J   22281.91667824  .00006814  00000-0  52927-4 0  9990,2 53826  53.2174 160.4475 0001555 143.0068 115.4556 15.73200216  1301,6727.895,91.533,350.806,348.713,0.0
53826.0,STARLINK-4756,PAYLOAD,2022-10-09 06:00:00,15.73218943,0.0001301,53.2152,158.7962,124.8912,222.4502,0.00015218,0.00020807,0.0,0 STARLINK-4756,1 53826U 22114J   22282.25001157  .00020807  00000-0  15218-3 0  9998,2 53826  53.2152 158.7962 0001301 124.8912 222.4502 15.73218943  3759,6727.840999999999,91.532,350.581,348.831,0.0
53826.0,STARLINK-4756,PAYLOAD,2022-10-09 14:00:01,15.73205737,0.0001564,53.2151,157.145,133.3141,303.0006,0.00045794,0.00064158,0.0,0 STARLINK-4756,1 53826U 22114J   22282.58334491  .00064158  00000-0  45794-3 0  9993,2 53826  53.2151 157.1450 0001564 133.3141 303.0006 15.73205737  1304,6727.879,91.533,350.796,348.69199999999995,0.0
53826.0,STARLINK-4756,PAYLOAD,2022-10-09 22:00:00,15.73227941,0.0001333,53.2151,155.4976,129.4615,35.8233,3.6008000000000005e-05,4.442e-05,0.0,0 STARLINK-4756,1 53826U 22114J   22282.91667824  .00004442  00000-0  36008-4 0  9998,2 53826  53.2151 155.4976 0001333 129.4615  35.8233 15.73227941  1307,6727.816,91.532,350.577,348.784,0.0
53826.0,STARLINK-4756,PAYLOAD,2022-10-10 08:00:01,15.73317218,0.0001359,53.2161,153.4358,126.7056,239.7751,-0.002204,-0.00300652,0.0,0 STARLINK-4756,1 53826U 22114J   22283.33334491 -.00300652  00000-0 -22040-2 0  9999,2 53826  53.2161 153.4358 0001359 126.7056 239.7751 15.73317218  3924,6727.561,91.526,350.34,348.51199999999994,0.0
53826.0,STARLINK-4756,PAYLOAD,2022-10-10 14:00:01,15.73223399,0.0001614,53.2151,152.1958,135.0822,208.1831,0.00021876,0.00030223,0.0,0 STARLINK-4756,1 53826U 22114J   22283.58334491  .00030223  00000-0  21876-3 0  9995,2 53826  53.2151 152.1958 0001614 135.0822 208.1831 15.73223399  3962,6727.828,91.532,350.779,348.608,0.0
53826.0,STARLINK-4756,PAYLOAD,2022-10-10 22:00:01,15.73342502,0.0001458,53.2162,150.5492,133.0672,299.223,-0.0036662,-0.00489322,0.0,0 STARLINK-4756,1 53826U 22114J   22283.91668981 -.00489322  00000-0 -36662-2 0  9994,2 53826  53.2162 150.5492 0001458 133.0672 299.2230 15.73342502  4026,6727.489000000001,91.525,350.335,348.37300000000016,0.0
53826.0,STARLINK-4756,PAYLOAD,2022-10-11 06:00:00,15.73144832,0.0001189999999999,53.215,148.8986,132.7153,28.3354,0.00025176,0.00034776,0.0,0 STARLINK-4756,1 53826U 22114J   22284.25001157  .00034776  00000-0  25176-3 0  9994,2 53826  53.2150 148.8986 0001190 132.7153  28.3354 15.73144832  4073,6728.052,91.536,350.718,349.117,0.0
53826.0,STARLINK-4756,PAYLOAD,2022-10-11 14:00:01,15.73227351,0.0001486,53.217,147.2492,127.7634,122.1607,-0.00025319,-0.00036044,0.0,0 STARLINK-4756,1 53826U 22114J   22284.58334491 -.00036044  00000-0 -25319-3 0  9991,2 53826  53.2170 147.2492 0001486 127.7634 122.1607 15.73227351  1301,6727.816999999999,91.532,350.682,348.682,0.0
53826.0,STARLINK-4756,PAYLOAD,2022-10-11 22:00:00,15.73155747,0.0001440999999999,53.214,145.6002,125.5751,213.2152,0.00049359,0.00069092,0.0,0 STARLINK-4756,1 53826U 22114J   22284.91667824  .00069092  00000-0  49359-3 0  9994,2 53826  53.2140 145.6002 0001441 125.5751 213.2152 15.73155747  4178,6728.021,91.536,350.856,348.917,0.0
53826.0,STARLINK-4756,PAYLOAD,2022-10-12 06:00:00,15.73308884,0.0001245,53.2152,143.9513,126.0245,301.7004,-0.00080231,-0.00112249,0.0,0 STARLINK-4756,1 53826U 22114J   22285.25001157 -.00112249  00000-0 -80231-3 0  9992,2 53826  53.2152 143.9513 0001245 126.0245 301.7004 15.73308884  4222,6727.585,91.527,350.287,348.612,0.0
53826.0,STARLINK-4756,PAYLOAD,2022-10-12 14:00:01,15.73183518,0.0001309,53.2165,142.3004,133.627,23.1235,0.00022008,0.00030357,0.0,0 STARLINK-4756,1 53826U 22114J   22285.58334491  .00030357  00000-0  22008-3 0  9993,2 53826  53.2165 142.3004 0001309 133.6270  23.1235 15.73183518  1309,6727.941999999999,91.534,350.68800000000016,348.926,0.0
53826.0,STARLINK-4756,PAYLOAD,2022-10-12 22:00:00,15.73204185,0.0001183,53.2175,140.6534,129.3469,116.325,-3.443500000000001e-07,-6.68e-06,0.0,0 STARLINK-4756,1 53826U 22114J   22285.91667824 -.00000668  00000-0 -34435-6 0  9993,2 53826  53.2175 140.6534 0001183 129.3469 116.3250 15.73204185  4333,6727.8830000000025,91.533,350.5440000000001,348.952,0.0
53826.0,STARLINK-4756,PAYLOAD,2022-10-13 14:00:01,15.73267697,0.0001505,53.2166,137.3515,127.1369,296.3695,-0.0006613,-0.00092683,0.0,0 STARLINK-4756,1 53826U 22114J   22286.58334491 -.00092683  00000-0 -66130-3 0  9990,2 53826  53.2166 137.3515 0001505 127.1369 296.3695 15.73267697  1301,6727.7019999999975,91.529,350.58,348.555,0.0
53826.0,STARLINK-4756,PAYLOAD,2022-10-13 22:00:00,15.73175514,0.0001428,53.2171,135.7044,122.778,29.7108,0.00033005,0.00045905,0.0,0 STARLINK-4756,1 53826U 22114J   22286.91667824  .00045905  00000-0  33005-3 0  9994,2 53826  53.2171 135.7044 0001428 122.7780  29.7108 15.73175514  1301,6727.965,91.535,350.791,348.869,0.0
53826.0,STARLINK-4756,PAYLOAD,2022-10-14 08:00:01,15.73261581,0.000135,53.2159,133.6404,130.3435,223.4851,-0.0021912,-0.00298279,0.0,0 STARLINK-4756,1 53826U 22114J   22287.33335648 -.00298279  00000-0 -21912-2 0  9996,2 53826  53.2159 133.6404 0001350 130.3435 223.4851 15.73261581  4558,6727.72,91.53,350.49300000000005,348.676,0.0
53826.0,STARLINK-4756,PAYLOAD,2022-10-14 14:00:01,15.73015135,0.0001325,53.2166,132.4029,125.0544,205.3858,0.0021255,0.00306392,0.0,0 STARLINK-4756,1 53826U 22114J   22287.58334491  .00306392  00000-0  21255-2 0  9992,2 53826  53.2166 132.4029 0001325 125.0544 205.3858 15.73015135  1308,6728.422,91.544,351.17900000000014,349.396,0.0
